NORAD_CAT_ID,OBJECT_NAME,OBJECT_TYPE,EPOCH,MEAN_MOTION,ECCENTRICITY,INCLINATION,RA_OF_ASC_NODE,ARG_OF_PERICENTER,MEAN_ANOMALY,BSTAR,MEAN_MOTION_DOT,MEAN_MOTION_DDOT,TLE_LINE0,TLE_LINE1,TLE_LINE2,SEMIMAJOR_AXIS,PERIOD,APOGEE,PERIGEE,DECAYED
55959.0,STARLINK-5929,PAYLOAD,2023-12-21 13:26:08,14.9832862,0.0002854,70.0002,144.5502,262.1156,97.9679,1.4196e-05,7.6e-07,0.0,0 STARLINK-5929,1 55959U 23037AX  23355.55982161  .00000076  00000-0  14196-4 0  9991,2 55959  70.0002 144.5502 0002854 262.1156  97.9679 14.98328620 43273,6950.197,96.107,574.046,570.079,0.0
55959.0,STARLINK-5929,PAYLOAD,2023-12-21 15:02:16,14.98328738,0.0002848,70.0002,144.3819,261.884,98.1996,1.5995e-05,9.8e-07,0.0,0 STARLINK-5929,1 55959U 23037AX  23355.62658152  .00000098  00000-0  15995-4 0  9991,2 55959  70.0002 144.3819 0002848 261.8840  98.1996 14.98328738 43287,6950.197,96.107,574.041,570.082,0.0
55959.0,STARLINK-5929,PAYLOAD,2023-12-22 11:52:01,14.98329788,0.0002844,70.0003,142.1939,261.8307,98.2529,1.7716e-05,1.18e-06,0.0,0 STARLINK-5929,1 55959U 23037AX  23356.49446084  .00000118  00000-0  17716-4 0  9992,2 55959  70.0003 142.1939 0002844 261.8307  98.2529 14.98329788 43752,6950.194,96.107,574.035,570.082,0.0
55959.0,STARLINK-5929,PAYLOAD,2023-12-22 13:28:09,14.98329807,0.0002842,70.0003,142.0256,261.6853,98.3983,1.8142e-05,1.23e-06,0.0,0 STARLINK-5929,1 55959U 23037AX  23356.56122083  .00000123  00000-0  18142-4 0  9990,2 55959  70.0003 142.0256 0002842 261.6853  98.3983 14.98329807 43426,6950.193,96.107,574.034,570.083,0.0
55959.0,STARLINK-5929,PAYLOAD,2023-12-22 19:52:41,14.98332362,0.000281,70.0003,141.3523,260.2369,99.8473,4.6559e-05,4.63e-06,0.0,0 STARLINK-5929,1 55959U 23037AX  23356.82825816  .00000463  00000-0  46559-4 0  9993,2 55959  70.0003 141.3523 0002810 260.2369  99.8473 14.98332362 43461,6950.186,96.107,574.004,570.098,0.0
55959.0,STARLINK-5929,PAYLOAD,2023-12-23 11:54:02,14.98329038,0.0002754,70.0005,139.6688,258.4604,101.6246,-5.0758e-06,-1.54e-06,0.0,0 STARLINK-5929,1 55959U 23037AX  23357.49586118 -.00000154  00000-0 -50758-5 0  9992,2 55959  70.0005 139.6688 0002754 258.4604 101.6246 14.98329038 43908,6950.196,96.107,573.975,570.147,0.0
55959.0,STARLINK-5929,PAYLOAD,2023-12-23 13:30:10,14.98328671,0.0002767,70.0005,139.5005,258.3435,101.7414,-1.0501e-05,-2.18e-06,0.0,0 STARLINK-5929,1 55959U 23037AX  23357.56262157 -.00000218  00000-0 -10501-4 0  9996,2 55959  70.0005 139.5005 0002767 258.3435 101.7414 14.98328671 43578,6950.197,96.107,573.985,570.139,0.0
55959.0,STARLINK-5929,PAYLOAD,2023-12-23 19:54:42,14.98331698,0.0002705,70.0004,138.827,257.7237,102.3619,-1.7174e-05,-2.98e-06,0.0,0 STARLINK-5929,1 55959U 23037AX  23357.82965992 -.00000298  00000-0 -17174-4 0  9993,2 55959  70.0004 138.8270 0002705 257.7237 102.3619 14.98331698 43610,6950.188,96.107,573.933,570.173,0.0
55959.0,STARLINK-5929,PAYLOAD,2023-12-24 11:56:02,14.98340007,0.0002769,70.0003,137.1437,263.4716,96.6128,-7.7597e-05,-1.019e-05,0.0,0 STARLINK-5929,1 55959U 23037AX  23358.49725587 -.00001019  00000-0 -77597-4 0  9998,2 55959  70.0003 137.1437 0002769 263.4716  96.6128 14.98340007 44055,6950.162,96.106,573.951,570.102,0.0
55959.0,STARLINK-5929,PAYLOAD,2023-12-24 13:32:10,14.98333948,0.0002768,70.0003,136.9754,262.6522,97.4323,2.3964e-05,1.93e-06,0.0,0 STARLINK-5929,1 55959U 23037AX  23358.56401616  .00000193  00000-0  23964-4 0  9999,2 55959  70.0003 136.9754 0002768 262.6522  97.4323 14.98333948 43724,6950.181,96.107,573.969,570.122,0.0
55959.0,STARLINK-5929,PAYLOAD,2023-12-24 18:20:35,14.98334157,0.0002768,70.0004,136.4704,263.5052,96.5792,5.1609e-05,5.23e-06,0.0,0 STARLINK-5929,1 55959U 23037AX  23358.76429477  .00000523  00000-0  51609-4 0  9990,2 55959  70.0004 136.4704 0002768 263.5052  96.5792 14.98334157 43759,6950.18,96.107,573.969,570.121,0.0
55959.0,STARLINK-5929,PAYLOAD,2023-12-25 11:58:04,14.9832599,0.0002721,70.0004,134.6188,261.7838,98.3012,-2.5386e-05,-3.96e-06,0.0,0 STARLINK-5929,1 55959U 23037AX  23359.49866120 -.00000396  00000-0 -25386-4 0  9994,2 55959  70.0004 134.6188 0002721 261.7838  98.3012 14.98325990 44207,6950.205,96.107,573.961,570.179,0.0
55959.0,STARLINK-5929,PAYLOAD,2023-12-25 13:34:12,14.98325549,0.0002733,70.0004,134.4505,261.4101,98.6749,-3.0904e-05,-4.62e-06,0.0,0 STARLINK-5929,1 55959U 23037AX  23359.56542169 -.00000462  00000-0 -30904-4 0  9992,2 55959  70.0004 134.4505 0002733 261.4101  98.6749 14.98325549 43873,6950.207,96.107,573.971,570.172,0.0
55959.0,STARLINK-5929,PAYLOAD,2023-12-25 18:22:36,14.98324645,0.0002754,70.0004,133.9456,262.0072,98.0774,-4.1014e-05,-5.82e-06,0.0,0 STARLINK-5929,1 55959U 23037AX  23359.76570306 -.00000582  00000-0 -41014-4 0  9995,2 55959  70.0004 133.9456 0002754 262.0072  98.0774 14.98324645 43901,6950.209,96.107,573.989,570.16,0.0
55959.0,STARLINK-5929,PAYLOAD,2023-12-26 12:00:05,14.98330384,0.0002851,70.0002,132.0938,263.1088,96.9747,-4.7569e-05,-6.61e-06,0.0,0 STARLINK-5929,1 55959U 23037AX  23360.50006010 -.00000661  00000-0 -47569-4 0  9994,2 55959  70.0002 132.0938 0002851 263.1088  96.9747 14.98330384 44355,6950.192,96.107,574.038,570.075,0.0
55959.0,STARLINK-5929,PAYLOAD,2023-12-26 13:36:13,14.9833024,0.000285,70.0002,131.9255,263.0108,97.0727,-4.7648e-05,-6.61e-06,0.0,0 STARLINK-5929,1 55959U 23037AX  23360.56682016 -.00000661  00000-0 -47648-4 0  9994,2 55959  70.0002 131.9255 0002850 263.0108  97.0727 14.98330240 44021,6950.192,96.107,574.038,570.076,0.0
55959.0,STARLINK-5929,PAYLOAD,2023-12-26 18:24:37,14.98331844,0.0002838,70.0003,131.4207,262.8786,97.205,-2.4726e-05,-3.88e-06,0.0,0 STARLINK-5929,1 55959U 23037AX  23360.76709844 -.00000388  00000-0 -24726-4 0  9993,2 55959  70.0003 131.4207 0002838 262.8786  97.2050 14.98331844 44054,6950.187,96.107,574.025,570.08,0.0
55959.0,STARLINK-5929,PAYLOAD,2023-12-27 12:02:04,14.98347979,0.0002828,70.0001,129.569,257.7786,102.3057,0.00027301,3.167e-05,0.0,0 STARLINK-5929,1 55959U 23037AX  23361.50143884  .00003167  00000-0  27301-3 0  9999,2 55959  70.0001 129.5690 0002828 257.7786 102.3057 14.98347979 44509,6950.137,96.106,573.968,570.037,0.0
55959.0,STARLINK-5929,PAYLOAD,2023-12-27 13:38:12,14.98347758,0.0002895,70.0002,129.4008,260.7068,99.3764,0.00027021,3.134e-05,0.0,0 STARLINK-5929,1 55959U 23037AX  23361.56819855  .00003134  00000-0  27021-3 0  9996,2 55959  70.0002 129.4008 0002895 260.7068  99.3764 14.98347758 44171,6950.138,96.106,574.015,569.991,0.0
55959.0,STARLINK-5929,PAYLOAD,2023-12-27 18:26:36,14.98350146,0.0002972,70.0002,128.8961,263.2909,96.7911,0.00028265,3.283e-05,0.0,0 STARLINK-5929,1 55959U 23037AX  23361.76847456  .00003283  00000-0  28265-3 0  9992,2 55959  70.0002 128.8961 0002972 263.2909  96.7911 14.98350146 44204,6950.131,96.106,574.061,569.93,0.0
55959.0,STARLINK-5929,PAYLOAD,2023-12-28 12:04:07,14.98322393,0.0003112,69.9999,127.0467,269.0982,90.982,-9.4711e-05,-1.223e-05,0.0,0 STARLINK-5929,1 55959U 23037AX  23362.50286153 -.00001223  00000-0 -94711-4 0  9990,2 55959  69.9999 127.0467 0003112 269.0982  90.9820 14.98322393 44657,6950.216,96.107,574.244,569.919,0.0
55959.0,STARLINK-5929,PAYLOAD,2023-12-28 13:40:15,14.98322648,0.0003022,69.9998,126.8778,267.0638,93.0175,-9.5834e-05,-1.236e-05,0.0,0 STARLINK-5929,1 55959U 23037AX  23362.56962150 -.00001236  00000-0 -95834-4 0  9995,2 55959  69.9998 126.8778 0003022 267.0638  93.0175 14.98322648 44328,6950.216,96.107,574.181,569.98,0.0
55959.0,STARLINK-5929,PAYLOAD,2023-12-28 18:28:39,14.98322502,0.0003162,69.9994,126.3723,269.7477,90.332,-0.00010178,-1.307e-05,0.0,0 STARLINK-5929,1 55959U 23037AX  23362.76990242 -.00001307  00000-0 -10178-3 0  9996,2 55959  69.9994 126.3723 0003162 269.7477  90.3320 14.98322502 44358,6950.216,96.107,574.279,569.883,0.0
55959.0,STARLINK-5929,PAYLOAD,2023-12-29 12:06:07,14.983378,0.0003227,69.9994,124.5197,270.3345,89.7444,-0.00022474,-2.774e-05,0.0,0 STARLINK-5929,1 55959U 23037AX  23363.50425816 -.00002774  00000-0 -22474-3 0  9990,2 55959  69.9994 124.5197 0003227 270.3345  89.7444 14.98337800 44803,6950.169,96.106,574.277,569.791,0.0
55959.0,STARLINK-5929,PAYLOAD,2023-12-29 13:42:15,14.98337778,0.0003078,69.9997,124.3512,268.7251,91.3556,-0.00022143,-2.735e-05,0.0,0 STARLINK-5929,1 55959U 23037AX  23363.57101769 -.00002735  00000-0 -22143-3 0  9995,2 55959  69.9997 124.3512 0003078 268.7251  91.3556 14.98337778 44476,6950.169,96.107,574.173,569.895,0.0
55959.0,STARLINK-5929,PAYLOAD,2023-12-29 18:30:39,14.9834246,0.0003092,69.9996,123.8464,267.6696,92.4109,-0.00015677,-1.964e-05,0.0,0 STARLINK-5929,1 55959U 23037AX  23363.77129183 -.00001964  00000-0 -15677-3 0  9994,2 55959  69.9996 123.8464 0003092 267.6696  92.4109 14.98342460 44506,6950.154,96.106,574.168,569.87,0.0
55959.0,STARLINK-5929,PAYLOAD,2023-12-30 12:08:08,14.98321069,0.0002913,69.9998,121.9946,267.2366,92.8459,9.9716e-05,1.097e-05,0.0,0 STARLINK-5929,1 55959U 23037AX  23364.50565903  .00001097  00000-0  99716-4 0  9992,2 55959  69.9998 121.9946 0002913 267.2366  92.8459 14.98321069 44956,6950.221,96.108,574.11,570.061,0.0
55959.0,STARLINK-5929,PAYLOAD,2023-12-30 13:44:17,14.98323175,0.0002461,70.0001,121.8266,257.2597,102.8287,6.863e-05,7.26e-06,0.0,0 STARLINK-5929,1 55959U 23037AX  23364.57241931  .00000726  00000-0  68630-4 0  9990,2 55959  70.0001 121.8266 0002461 257.2597 102.8287 14.98323175 44626,6950.214,96.107,573.789,570.369,0.0
55959.0,STARLINK-5929,PAYLOAD,2023-12-30 18:32:40,14.98326122,0.0002783,70.0002,121.3215,264.9866,95.0975,0.00016774,1.909e-05,0.0,0 STARLINK-5929,1 55959U 23037AX  23364.77269520  .00001909  00000-0  16774-3 0  9991,2 55959  70.0002 121.3215 0002783 264.9866  95.0975 14.98326122 44652,6950.205,96.107,574.004,570.136,0.0
55959.0,STARLINK-5929,PAYLOAD,2023-12-31 12:10:10,14.98324485,0.0002932,70.0004,119.4702,268.4992,91.5831,1.2918e-06,-7.8e-07,0.0,0 STARLINK-5929,1 55959U 23037AX  23365.50706255 -.00000078  00000-0  12918-5 0  9999,2 55959  70.0004 119.4702 0002932 268.4992  91.5831 14.98324485 45101,6950.21,96.107,574.113,570.037,0.0
